NORAD_CAT_ID,OBJECT_NAME,OBJECT_TYPE,EPOCH,MEAN_MOTION,ECCENTRICITY,INCLINATION,RA_OF_ASC_NODE,ARG_OF_PERICENTER,MEAN_ANOMALY,BSTAR,MEAN_MOTION_DOT,MEAN_MOTION_DDOT,TLE_LINE0,TLE_LINE1,TLE_LINE2,SEMIMAJOR_AXIS,PERIOD,APOGEE,PERIGEE,DECAYED
53177.0,STARLINK-4298,PAYLOAD,2024-07-15 12:50:58,15.08832949,0.0001235,53.2171,322.2888,83.9608,276.1525,0.0011094,0.00017409,0.0,0 STARLINK-4298,1 53177U 22083AX  24197.53540102  .00017409  00000-0  11094-2 0  9999,2 53177  53.2171 322.2888 0001235  83.9608 276.1525 15.08832949111439,6917.902,95.438,540.621,538.913,0.0
53177.0,STARLINK-4298,PAYLOAD,2024-07-15 14:26:21,15.08831558,0.0001309,53.2168,321.9906,82.3627,277.7514,0.001176,0.00018473,0.0,0 STARLINK-4298,1 53177U 22083AX  24197.60164166  .00018473  00000-0  11760-2 0  9991,2 53177  53.2168 321.9906 0001309  82.3627 277.7514 15.08831558110808,6917.906,95.438,540.677,538.866,0.0
53177.0,STARLINK-4298,PAYLOAD,2024-07-15 16:01:44,15.08834477,0.0001261,53.2167,321.6934,81.1115,279.002,0.001589,0.00025088,0.0,0 STARLINK-4298,1 53177U 22083AX  24197.66788177  .00025088  00000-0  15890-2 0  9999,2 53177  53.2167 321.6934 0001261  81.1115 279.0020 15.08834477110812,6917.897,95.438,540.635,538.89,0.0
53177.0,STARLINK-4298,PAYLOAD,2024-07-16 12:41:45,15.0884921,0.0001432,53.2163,317.828,85.8989,274.2167,0.0014479,0.00022836,0.0,0 STARLINK-4298,1 53177U 22083AX  24198.52900222  .00022836  00000-0  14479-2 0  9992,2 53177  53.2163 317.8280 0001432  85.8989 274.2167 15.08849210111584,6917.852,95.437,540.708,538.727,0.0
53177.0,STARLINK-4298,PAYLOAD,2024-07-16 14:17:08,15.08851268,0.0001484,53.2166,317.5306,85.1648,274.9513,0.0015745,0.00024867,0.0,0 STARLINK-4298,1 53177U 22083AX  24198.59524184  .00024867  00000-0  15745-2 0  9991,2 53177  53.2166 317.5306 0001484  85.1648 274.9513 15.08851268110953,6917.846,95.437,540.738,538.684,0.0
53177.0,STARLINK-4298,PAYLOAD,2024-07-17 12:32:32,15.08867048,0.0001222,53.217,313.3677,80.8387,279.2744,0.002264,0.00035954,0.0,0 STARLINK-4298,1 53177U 22083AX  24199.52260395  .00035954  00000-0  22640-2 0  9997,2 53177  53.2170 313.3677 0001222  80.8387 279.2744 15.08867048111739,6917.798,95.436,540.508,538.817,0.0
53177.0,STARLINK-4298,PAYLOAD,2024-07-17 14:07:55,15.08862064,0.0001598,53.2171,313.0701,102.4546,257.6625,0.0020838,0.00033052,0.0,0 STARLINK-4298,1 53177U 22083AX  24199.58884220  .00033052  00000-0  20838-2 0  9996,2 53177  53.2171 313.0701 0001598 102.4546 257.6625 15.08862064111101,6917.813,95.436,540.783,538.572,0.0
53177.0,STARLINK-4298,PAYLOAD,2024-07-18 12:23:20,15.08840162,0.000138,53.2182,308.9046,111.708,248.4059,0.00051308,7.887e-05,0.0,0 STARLINK-4298,1 53177U 22083AX  24200.51620619  .00007887  00000-0  51308-3 0  9996,2 53177  53.2182 308.9046 0001380 111.7080 248.4059 15.08840162111882,6917.88,95.438,540.7,538.79,0.0
53177.0,STARLINK-4298,PAYLOAD,2024-07-18 13:58:43,15.08842174,0.0001062,53.2191,308.6098,87.7596,272.3517,0.00039405,5.989e-05,0.0,0 STARLINK-4298,1 53177U 22083AX  24200.58244701  .00005989  00000-0  39405-3 0  9992,2 53177  53.2191 308.6098 0001062  87.7596 272.3517 15.08842174111258,6917.874,95.437,540.473,539.004,0.0
53177.0,STARLINK-4298,PAYLOAD,2024-07-19 13:49:30,15.08838602,0.0001135,53.2177,304.1493,102.1059,258.0061,0.00012171,1.65e-05,0.0,0 STARLINK-4298,1 53177U 22083AX  24201.57604682  .00001650  00000-0  12171-3 0  9992,2 53177  53.2177 304.1493 0001135 102.1059 258.0061 15.08838602112043,6917.885,95.438,540.535,538.964,0.0
53177.0,STARLINK-4298,PAYLOAD,2024-07-20 13:40:17,15.08840285,0.0001277,53.2189,299.6913,89.1592,270.9546,0.0001111,1.481e-05,0.0,0 STARLINK-4298,1 53177U 22083AX  24202.56964680  .00001481  00000-0  11110-3 0  9993,2 53177  53.2189 299.6913 0001277  89.1592 270.9546 15.08840285111550,6917.88,95.438,540.628,538.861,0.0
53177.0,STARLINK-4298,PAYLOAD,2024-07-20 23:12:35,15.088603,0.0001309,53.219,297.9047,88.3096,271.8046,0.000536,8.257e-05,0.0,0 STARLINK-4298,1 53177U 22083AX  24202.96707870  .00008257  00000-0  53600-3 0  9991,2 53177  53.2190 297.9047 0001309  88.3096 271.8046 15.08860300112250,6917.818,95.436,540.589,538.778,0.0
53177.0,STARLINK-4298,PAYLOAD,2024-07-21 11:55:41,15.08834423,0.0001557,53.2183,295.5295,100.5333,259.5835,7.897e-05,9.69e-06,0.0,0 STARLINK-4298,1 53177U 22083AX  24203.49700887  .00000969  00000-0  78970-4 0  9991,2 53177  53.2183 295.5295 0001557 100.5333 259.5835 15.08834423112332,6917.897,95.438,540.84,538.685,0.0
53177.0,STARLINK-4298,PAYLOAD,2024-07-21 13:31:04,15.08839203,0.0001503,53.2184,295.2309,91.9512,268.1652,0.00058331,9.007e-05,0.0,0 STARLINK-4298,1 53177U 22083AX  24203.56324873  .00009007  00000-0  58331-3 0  9996,2 53177  53.2184 295.2309 0001503  91.9512 268.1652 15.08839203111703,6917.883,95.438,540.788,538.708,0.0
53177.0,STARLINK-4298,PAYLOAD,2024-07-22 10:11:05,15.08843304,0.0001586,53.2175,291.3635,78.0202,282.0968,0.0007713,0.0001201,0.0,0 STARLINK-4298,1 53177U 22083AX  24204.42437462  .00012010  00000-0  77130-3 0  9997,2 53177  53.2175 291.3635 0001586  78.0202 282.0968 15.08843304111831,6917.87,95.437,540.832,538.638,0.0
53177.0,STARLINK-4298,PAYLOAD,2024-07-22 14:57:15,15.08850256,0.0001542,53.2173,290.4707,81.3798,278.7369,0.00082043,0.00012797,0.0,0 STARLINK-4298,1 53177U 22083AX  24204.62309278  .00012797  00000-0  82043-3 0  9993,2 53177  53.2173 290.4707 0001542  81.3798 278.7369 15.08850256112504,6917.849,95.437,540.781,538.647,0.0
53177.0,STARLINK-4298,PAYLOAD,2024-07-23 11:37:15,15.08850432,0.0001534,53.2173,286.6038,88.4576,271.6591,0.0003632,5.499e-05,0.0,0 STARLINK-4298,1 53177U 22083AX  24205.48420917  .00005499  00000-0  36320-3 0  9990,2 53177  53.2173 286.6038 0001534  88.4576 271.6591 15.08850432112630,6917.849,95.437,540.775,538.652,0.0
53177.0,STARLINK-4298,PAYLOAD,2024-07-24 05:06:30,15.0884325,0.0001409,53.2142,283.3335,83.5431,276.5721,0.00021343,3.111e-05,0.0,0 STARLINK-4298,1 53177U 22083AX  24206.21285004  .00003111  00000-0  21343-3 0  9996,2 53177  53.2142 283.3335 0001409  83.5431 276.5721 15.08843250112748,6917.87,95.437,540.71,538.761,0.0
53177.0,STARLINK-4298,PAYLOAD,2024-07-24 09:52:39,15.088395,9.41e-05,53.2139,282.4411,59.7621,300.3464,0.00011885,1.604e-05,0.0,0 STARLINK-4298,1 53177U 22083AX  24206.41157254  .00001604  00000-0  11885-3 0  9998,2 53177  53.2139 282.4411 0000941  59.7621 300.3464 15.08839500112131,6917.882,95.438,540.398,539.096,0.0
53177.0,STARLINK-4298,PAYLOAD,2024-07-25 04:57:17,15.08842368,0.0001207,53.2152,278.8719,81.9066,278.2063,0.00012545,1.709e-05,0.0,0 STARLINK-4298,1 53177U 22083AX  24207.20645328  .00001709  00000-0  12545-3 0  9990,2 53177  53.2152 278.8719 0001207  81.9066 278.2063 15.08842368112259,6917.873,95.437,540.573,538.903,0.0
53177.0,STARLINK-4298,PAYLOAD,2024-07-25 14:29:36,15.08845288,0.0001413,53.2151,277.0882,85.4759,274.6394,0.00022901,3.359e-05,0.0,0 STARLINK-4298,1 53177U 22083AX  24207.60389240  .00003359  00000-0  22901-3 0  9992,2 53177  53.2151 277.0882 0001413  85.4759 274.6394 15.08845288112955,6917.864,95.437,540.707,538.752,0.0
53177.0,STARLINK-4298,PAYLOAD,2024-07-26 12:44:59,15.0884788,0.0001404,53.2159,272.9239,92.5703,267.545,0.00023078,3.388e-05,0.0,0 STARLINK-4298,1 53177U 22083AX  24208.53124898  .00003388  00000-0  23078-3 0  9999,2 53177  53.2159 272.9239 0001404  92.5703 267.5450 15.08847880112450,6917.856,95.437,540.693,538.75,0.0
53177.0,STARLINK-4298,PAYLOAD,2024-07-27 09:25:00,15.08838933,0.0001369,53.2153,269.0574,91.8453,268.2696,-1.1702e-05,-4.74e-06,0.0,0 STARLINK-4298,1 53177U 22083AX  24209.39237187 -.00000474  00000-0 -11702-4 0  9997,2 53177  53.2153 269.0574 0001369  91.8453 268.2696 15.08838933113222,6917.884,95.438,540.696,538.802,0.0
53177.0,STARLINK-4298,PAYLOAD,2024-07-27 14:11:10,15.08834695,0.0001458,53.2159,268.1664,92.3087,267.8072,-7.1252e-05,-1.422e-05,0.0,0 STARLINK-4298,1 53177U 22083AX  24209.59109421 -.00001422  00000-0 -71252-4 0  9998,2 53177  53.2159 268.1664 0001458  92.3087 267.8072 15.08834695112612,6917.897,95.438,540.77,538.753,0.0
53177.0,STARLINK-4298,PAYLOAD,2024-07-28 12:26:34,15.08844346,0.0001459,53.2169,264.0045,93.9836,266.1323,7.5656e-05,9.16e-06,0.0,0 STARLINK-4298,1 53177U 22083AX  24210.51844975  .00000916  00000-0  75656-4 0  9999,2 53177  53.2169 264.0045 0001459  93.9836 266.1323 15.08844346113392,6917.867,95.437,540.741,538.723,0.0
53177.0,STARLINK-4298,PAYLOAD,2024-07-29 12:17:21,15.08837549,0.0001539,53.2168,259.545,79.0989,281.0176,0.00011991,1.621e-05,0.0,0 STARLINK-4298,1 53177U 22083AX  24211.51205662  .00001621  00000-0  11991-3 0  9999,2 53177  53.2168 259.5450 0001539  79.0989 281.0176 15.08837549113549,6917.888,95.438,540.818,538.688,0.0
53177.0,STARLINK-4298,PAYLOAD,2024-07-29 20:14:17,15.08841015,0.0001553,53.2168,258.0582,85.8494,274.2676,0.00012366,1.681e-05,0.0,0 STARLINK-4298,1 53177U 22083AX  24211.84325480  .00001681  00000-0  12366-3 0  9999,2 53177  53.2168 258.0582 0001553  85.8494 274.2676 15.08841015112957,6917.877,95.437,540.817,538.668,0.0
53177.0,STARLINK-4298,PAYLOAD,2024-07-30 12:08:08,15.0884153,0.0001639,53.2173,255.0817,82.6435,277.4744,4.9955e-05,5.07e-06,0.0,0 STARLINK-4298,1 53177U 22083AX  24212.50565673  .00000507  00000-0  49955-4 0  9994,2 53177  53.2173 255.0817 0001639  82.6435 277.4744 15.08841530113051,6917.876,95.437,540.875,538.607,0.0
53177.0,STARLINK-4298,PAYLOAD,2024-07-30 20:05:03,15.08854137,0.0001503,53.2165,253.5971,88.2646,271.8518,5.7963e-05,6.35e-06,0.0,0 STARLINK-4298,1 53177U 22083AX  24212.83684683  .00000635  00000-0  57963-4 0  9993,2 53177  53.2165 253.5971 0001503  88.2646 271.8518 15.08854137113742,6917.837,95.437,540.742,538.662,0.0
53177.0,STARLINK-4298,PAYLOAD,2024-07-31 10:23:32,15.08852681,0.0001402,53.2163,250.921,86.3923,273.723,-3.9908e-05,-9.23e-06,0.0,0 STARLINK-4298,1 53177U 22083AX  24213.43301041 -.00000923  00000-0 -39908-4 0  9995,2 53177  53.2163 250.9210 0001402  86.3923 273.7230 15.08852681113836,6917.842,95.437,540.677,538.737,0.0
